{
  "type": "FeatureCollection",
  "features": [
    {
      "type": "Feature",
      "properties": {
        "norad_id": 28890,
        "name": "BEIJING 1",
        "group": "dmc",
        "lat": 68.90019454831588,
        "lon": 90.23866898334352,
        "alt_km": 673.0563970429484,
        "timestamp": "2025-12-10T20:49:52.227431+00:00",
        "meta_object_name": "BEIJING 1",
        "meta_object_id": "2005-043A",
        "meta_epoch": "2025-12-10T15:35:11.957280",
        "meta_mean_motion": 14.63362697,
        "meta_eccentricity": 0.00151909,
        "meta_inclination": 98.2657,
        "meta_ra_of_asc_node": 112.1514,
        "meta_arg_of_pericenter": 147.4239,
        "meta_mean_anomaly": 212.7903,
        "meta_ephemeris_type": 0,
        "meta_classification_type": "U",
        "meta_norad_cat_id": 28890,
        "meta_element_set_no": 999,
        "meta_rev_at_epoch": 7307,
        "meta_bstar": 0.00012599333,
        "meta_mean_motion_dot": 6.03e-06,
        "meta_mean_motion_ddot": 0,
        "tle_line1": "1 28890U 05043A   25344.64944395  .00000603  00000+0  12599-3 0  9998",
        "tle_line2": "2 28890  98.2657 112.1514 0015190 147.4239 212.7903 14.63362697 73075"
      },
      "geometry": {
        "type": "Point",
        "coordinates": [
          90.23866898334352,
          68.90019454831588
        ]
      }
    },
    {
      "type": "Feature",
      "properties": {
        "norad_id": 33320,
        "name": "HUANJING 1A (HJ-1A)",
        "group": "dmc",
        "lat": -36.496045503657285,
        "lon": -21.044894755679895,
        "alt_km": 621.8512402610677,
        "timestamp": "2025-12-10T20:49:52.227454+00:00",
        "meta_object_name": "HUANJING 1A (HJ-1A)",
        "meta_object_id": "2008-041A",
        "meta_epoch": "2025-12-10T14:31:15.950208",
        "meta_mean_motion": 14.83383381,
        "meta_eccentricity": 0.00203198,
        "meta_inclination": 97.6545,
        "meta_ra_of_asc_node": 332.9927,
        "meta_arg_of_pericenter": 41.2682,
        "meta_mean_anomaly": 319.0064,
        "meta_ephemeris_type": 0,
        "meta_classification_type": "U",
        "meta_norad_cat_id": 33320,
        "meta_element_set_no": 999,
        "meta_rev_at_epoch": 93044,
        "meta_bstar": 0.00028518023,
        "meta_mean_motion_dot": 2.296e-05,
        "meta_mean_motion_ddot": 0,
        "tle_line1": "1 33320U 08041A   25344.60504572  .00002296  00000+0  28518-3 0  9996",
        "tle_line2": "2 33320  97.6545 332.9927 0020319  41.2682 319.0064 14.83383381930447"
      },
      "geometry": {
        "type": "Point",
        "coordinates": [
          -21.044894755679895,
          -36.496045503657285
        ]
      }
    },
    {
      "type": "Feature",
      "properties": {
        "norad_id": 33321,
        "name": "HUANJING 1B (HJ-1B)",
        "group": "dmc",
        "lat": -8.873654720833335,
        "lon": 155.74528477620623,
        "alt_km": 632.4743519825042,
        "timestamp": "2025-12-10T20:49:52.227469+00:00",
        "meta_object_name": "HUANJING 1B (HJ-1B)",
        "meta_object_id": "2008-041B",
        "meta_epoch": "2025-12-10T15:07:38.760672",
        "meta_mean_motion": 14.82812326,
        "meta_eccentricity": 0.00382813,
        "meta_inclination": 97.6402,
        "meta_ra_of_asc_node": 336.719,
        "meta_arg_of_pericenter": 82.2476,
        "meta_mean_anomaly": 278.3082,
        "meta_ephemeris_type": 0,
        "meta_classification_type": "U",
        "meta_norad_cat_id": 33321,
        "meta_element_set_no": 999,
        "meta_rev_at_epoch": 93046,
        "meta_bstar": 0.00023071337,
        "meta_mean_motion_dot": 1.839e-05,
        "meta_mean_motion_ddot": 0,
        "tle_line1": "1 33321U 08041B   25344.63030973  .00001839  00000+0  23071-3 0  9990",
        "tle_line2": "2 33321  97.6402 336.7190 0038281  82.2476 278.3082 14.82812326930461"
      },
      "geometry": {
        "type": "Point",
        "coordinates": [
          155.74528477620623,
          -8.873654720833335
        ]
      }
    },
    {
      "type": "Feature",
      "properties": {
        "norad_id": 33446,
        "name": "YAOGAN-4",
        "group": "dmc",
        "lat": 76.41441546416901,
        "lon": 130.14936144250905,
        "alt_km": 620.0300842548013,
        "timestamp": "2025-12-10T20:49:52.227481+00:00",
        "meta_object_name": "YAOGAN-4",
        "meta_object_id": "2008-061A",
        "meta_epoch": "2025-12-10T09:02:22.074432",
        "meta_mean_motion": 14.82671071,
        "meta_eccentricity": 0.00137719,
        "meta_inclination": 97.918,
        "meta_ra_of_asc_node": 274.4991,
        "meta_arg_of_pericenter": 331.4072,
        "meta_mean_anomaly": 28.6385,
        "meta_ephemeris_type": 0,
        "meta_classification_type": "U",
        "meta_norad_cat_id": 33446,
        "meta_element_set_no": 999,
        "meta_rev_at_epoch": 91768,
        "meta_bstar": 0.00031259873,
        "meta_mean_motion_dot": 2.471e-05,
        "meta_mean_motion_ddot": 0,
        "tle_line1": "1 33446U 08061A   25344.37664438  .00002471  00000+0  31260-3 0  9992",
        "tle_line2": "2 33446  97.9180 274.4991 0013771 331.4072  28.6385 14.82671071917681"
      },
      "geometry": {
        "type": "Point",
        "coordinates": [
          130.14936144250905,
          76.41441546416901
        ]
      }
    },
    {
      "type": "Feature",
      "properties": {
        "norad_id": 35681,
        "name": "DEIMOS-1",
        "group": "dmc",
        "lat": -75.13851792505982,
        "lon": 176.27897387687702,
        "alt_km": 654.4422553141794,
        "timestamp": "2025-12-10T20:49:52.227492+00:00",
        "meta_object_name": "DEIMOS-1",
        "meta_object_id": "2009-041A",
        "meta_epoch": "2025-12-10T14:40:06.364128",
        "meta_mean_motion": 14.7494638,
        "meta_eccentricity": 0.00027311,
        "meta_inclination": 97.7149,
        "meta_ra_of_asc_node": 145.3133,
        "meta_arg_of_pericenter": 82.6891,
        "meta_mean_anomaly": 277.4629,
        "meta_ephemeris_type": 0,
        "meta_classification_type": "U",
        "meta_norad_cat_id": 35681,
        "meta_element_set_no": 999,
        "meta_rev_at_epoch": 87908,
        "meta_bstar": 0.00014020242,
        "meta_mean_motion_dot": 8.95e-06,
        "meta_mean_motion_ddot": 0,
        "tle_line1": "1 35681U 09041A   25344.61118477  .00000895  00000+0  14020-3 0  9991",
        "tle_line2": "2 35681  97.7149 145.3133 0002731  82.6891 277.4629 14.74946380879084"
      },
      "geometry": {
        "type": "Point",
        "coordinates": [
          176.27897387687702,
          -75.13851792505982
        ]
      }
    },
    {
      "type": "Feature",
      "properties": {
        "norad_id": 35683,
        "name": "UK-DMC 2",
        "group": "dmc",
        "lat": -65.50680822818533,
        "lon": 137.46588339540457,
        "alt_km": 651.3704103353448,
        "timestamp": "2025-12-10T20:49:52.227503+00:00",
        "meta_object_name": "UK-DMC 2",
        "meta_object_id": "2009-041C",
        "meta_epoch": "2025-12-10T14:37:24.510144",
        "meta_mean_motion": 14.75614574,
        "meta_eccentricity": 0.00014046,
        "meta_inclination": 97.8563,
        "meta_ra_of_asc_node": 119.5721,
        "meta_arg_of_pericenter": 96.0998,
        "meta_mean_anomaly": 264.0371,
        "meta_ephemeris_type": 0,
        "meta_classification_type": "U",
        "meta_norad_cat_id": 35683,
        "meta_element_set_no": 999,
        "meta_rev_at_epoch": 87875,
        "meta_bstar": 0.00027118182,
        "meta_mean_motion_dot": 1.801e-05,
        "meta_mean_motion_ddot": 0,
        "tle_line1": "1 35683U 09041C   25344.60931146  .00001801  00000+0  27118-3 0  9998",
        "tle_line2": "2 35683  97.8563 119.5721 0001404  96.0998 264.0371 14.75614574878753"
      },
      "geometry": {
        "type": "Point",
        "coordinates": [
          137.46588339540457,
          -65.50680822818533
        ]
      }
    },
    {
      "type": "Feature",
      "properties": {
        "norad_id": 40715,
        "name": "DMC3-FM1",
        "group": "dmc",
        "lat": -80.13991527133483,
        "lon": -97.04439658248141,
        "alt_km": 617.5637745897102,
        "timestamp": "2025-12-10T20:49:52.227514+00:00",
        "meta_object_name": "DMC3-FM1",
        "meta_object_id": "2015-032A",
        "meta_epoch": "2025-12-10T14:44:27.196224",
        "meta_mean_motion": 14.8543547,
        "meta_eccentricity": 0.00048016,
        "meta_inclination": 97.669,
        "meta_ra_of_asc_node": 211.8839,
        "meta_arg_of_pericenter": 330.2859,
        "meta_mean_anomaly": 29.8083,
        "meta_ephemeris_type": 0,
        "meta_classification_type": "U",
        "meta_norad_cat_id": 40715,
        "meta_element_set_no": 999,
        "meta_rev_at_epoch": 56191,
        "meta_bstar": 0.000151987,
        "meta_mean_motion_dot": 1.259e-05,
        "meta_mean_motion_ddot": 0,
        "tle_line1": "1 40715U 15032A   25344.61420366  .00001259  00000+0  15199-3 0  9998",
        "tle_line2": "2 40715  97.6690 211.8839 0004801 330.2859  29.8083 14.85435470561914"
      },
      "geometry": {
        "type": "Point",
        "coordinates": [
          -97.04439658248141,
          -80.13991527133483
        ]
      }
    },
    {
      "type": "Feature",
      "properties": {
        "norad_id": 40716,
        "name": "DMC3-FM2",
        "group": "dmc",
        "lat": 23.647397398728717,
        "lon": 36.95592786065819,
        "alt_km": 615.6059214816123,
        "timestamp": "2025-12-10T20:49:52.227524+00:00",
        "meta_object_name": "DMC3-FM2",
        "meta_object_id": "2015-032B",
        "meta_epoch": "2025-12-10T15:16:51.165984",
        "meta_mean_motion": 14.85433417,
        "meta_eccentricity": 0.00055151,
        "meta_inclination": 97.6746,
        "meta_ra_of_asc_node": 213.348,
        "meta_arg_of_pericenter": 334.1706,
        "meta_mean_anomaly": 25.9233,
        "meta_ephemeris_type": 0,
        "meta_classification_type": "U",
        "meta_norad_cat_id": 40716,
        "meta_element_set_no": 999,
        "meta_rev_at_epoch": 56191,
        "meta_bstar": 6.0580193e-05,
        "meta_mean_motion_dot": 4.71e-06,
        "meta_mean_motion_ddot": 0,
        "tle_line1": "1 40716U 15032B   25344.63670331  .00000471  00000+0  60580-4 0  9990",
        "tle_line2": "2 40716  97.6746 213.3480 0005515 334.1706  25.9233 14.85433417561916"
      },
      "geometry": {
        "type": "Point",
        "coordinates": [
          36.95592786065819,
          23.647397398728717
        ]
      }
    },
    {
      "type": "Feature",
      "properties": {
        "norad_id": 40717,
        "name": "DMC3-FM3",
        "group": "dmc",
        "lat": 40.06019164487611,
        "lon": -151.3130306341946,
        "alt_km": 607.7716578162681,
        "timestamp": "2025-12-10T20:49:52.227534+00:00",
        "meta_object_name": "DMC3-FM3",
        "meta_object_id": "2015-032C",
        "meta_epoch": "2025-12-10T14:10:58.107648",
        "meta_mean_motion": 14.85423979,
        "meta_eccentricity": 0.00048276,
        "meta_inclination": 97.68,
        "meta_ra_of_asc_node": 214.9352,
        "meta_arg_of_pericenter": 335.9818,
        "meta_mean_anomaly": 24.1172,
        "meta_ephemeris_type": 0,
        "meta_classification_type": "U",
        "meta_norad_cat_id": 40717,
        "meta_element_set_no": 999,
        "meta_rev_at_epoch": 56191,
        "meta_bstar": 0.00010192184,
        "meta_mean_motion_dot": 8.27e-06,
        "meta_mean_motion_ddot": 0,
        "tle_line1": "1 40717U 15032C   25344.59095032  .00000827  00000+0  10192-3 0  9993",
        "tle_line2": "2 40717  97.6800 214.9352 0004827 335.9818  24.1172 14.85423979561916"
      },
      "geometry": {
        "type": "Point",
        "coordinates": [
          -151.3130306341946,
          40.06019164487611
        ]
      }
    }
  ]
}